ESTCUBE 1               
1 39161U 13021C   22003.80285180  .00000546  00000+0  93444-4 0  9998
2 39161  97.9251  85.2496 0008551 224.6308 135.4183 14.72627190465237
FENGYUN 3C              
1 39260U 13052A   22003.54785175  .00000040  00000+0  41135-4 0  9991
2 39260  98.4756  39.8459 0011847  34.9820 325.2135 14.15892456428589
CASSIOPE                
1 39265U 13055A   22003.44653209  .00005443  00000+0  14668-3 0  9992
2 39265  80.9669  81.7739 0639497  85.8312 281.5649 14.34767480428648
ZACUBE-1 (TSHEPISOSAT)  
1 39417U 13066B   22003.48970755  .00000598  00000+0  80297-4 0  9993
2 39417  97.6162 342.7250 0057251 224.4401 135.2212 14.81758288438695
CINEMA-3 (KHUSAT-2)     
1 39426U 13066L   22003.41817831  .00000437  00000+0  75172-4 0  9999
2 39426  97.7820 310.7410 0104955  45.0755 315.8907 14.69818560435020
TRITON-1                
1 39427U 13066M   22003.59696434  .00000589  00000+0  10013-3 0  9993
2 39427  97.7990 306.7814 0114309  71.6915 289.6687 14.68444985434587
DELFI-N3XT              
1 39428U 13066N   22003.38363475  .00000896  00000+0  14689-3 0  9991
2 39428  97.8019 305.0886 0120523  85.3248 276.1711 14.68335154434304
GOMX-1                  
1 39430U 13066Q   22003.42015850  .00000555  00000+0  10863-3 0  9992
2 39430  97.8154 280.0166 0149456 204.5681 154.8333 14.59799647432213
BRITE-PL1 (LEM)         
1 39431U 13066R   22003.61944338  .00000180  00000+0  48163-4 0  9995
2 39431  97.7213 231.7581 0202420  19.6182 341.2659 14.47208211428526
ICUBE-1                 
1 39432U 13066S   22002.60817636  .00000797  00000+0  84762-4 0  9993
2 39432  97.4689  15.0989 0033185  98.0096 262.4891 14.91189796439980
HUMSAT-D                
1 39433U 13066T   22002.96092414  .00001080  00000+0  10728-3 0  9998
2 39433  97.4577  22.7761 0031640  74.7959 285.6757 14.93307688440516
VELOX-PII               
1 39438U 13066Y   22003.44855967  .00000598  00000+0  86002-4 0  9999
2 39438  97.6700 333.5871 0068560 274.1261  85.2117 14.78421576436626
FIRST-MOVE              
1 39439U 13066Z   22002.41954596  .00001378  00000+0  16996-3 0  9995
2 39439  97.6193 343.6260 0062969 224.7831 134.8291 14.83066254437436
CUBEBUG-2 (LO-74)       
1 39440U 13066AA  22003.12209221  .00000834  00000+0  12129-3 0  9994
2 39440  97.7045 327.9278 0078445 308.5480  50.8717 14.76473640435886
NEE-02 KRYSAOR          
1 39441U 13066AB  22003.39853736  .00000572  00000+0  87494-4 0  9997
2 39441  97.7151 325.4536 0080316 320.1392  39.3936 14.75349311435697
FUNCUBE-1 (AO-73)       
1 39444U 13066AE  22003.48376126  .00000705  00000+0  91458-4 0  9996
2 39444  97.6053 345.1105 0056450 213.4719 146.2923 14.82713348437071
HINCUBE                 
1 39445U 13066AF  22003.51480062  .00000703  00000+0  91602-4 0  9995
2 39445  97.6068 344.9754 0056460 215.4379 144.3079 14.82536415437024
UWE-3                   
1 39446U 13066AG  22003.42847832  .00000675  00000+0  94891-4 0  9999
2 39446  97.6636 334.9266 0067874 267.4152  91.9289 14.79016883436061
AIST-1 (RS-41)          
1 39492U 13078C   22003.53126562  .00000562  00000+0  58196-4 0  9998
2 39492  82.4192  34.3879 0018311 295.7261  64.2076 14.88156241435259
SPROUT                  
1 39770U 14029E   22003.90651574  .00003185  00000+0  34337-3 0  9995
2 39770  97.9301 120.2643 0007456 267.7534  92.2773 14.89126041413162
UNISAT-6                
1 40012U 14033C   22003.50143991  .00000484  00000+0  78271-4 0  9991
2 40012  97.6616 200.2932 0057320 334.3832  25.4540 14.74491401405672
BUGSAT-1 (TITA)         
1 40014U 14033E   22003.56386084  .00000407  00000+0  41735-4 0  9991
2 40014  98.1314 355.4414 0030074 221.7922 138.1000 14.96022796411489
DUCHIFAT-1              
1 40021U 14033M   22003.38705024  .00001464  00000+0  15101-3 0  9999
2 40021  97.9947 310.9540 0011585 220.9645 139.0703 14.91774189410081
NANOSATC-BR1            
1 40024U 14033Q   22003.47720132  .00000965  00000+0  10393-3 0  9992
2 40024  97.9703 305.2272 0010863 227.0312 132.9995 14.90803663409396
QB50P1                  
1 40025U 14033R   22002.79419302  .00000833  00000+0  92853-4 0  9997
2 40025  97.9483 299.1543 0010975 239.8801 120.1329 14.89742994409096
DTUSAT-2                
1 40030U 14033W   22003.26169735  .00000789  00000+0  89285-4 0  9993
2 40030  97.9283 295.5732 0010486 234.1278 125.8966 14.89268292409052
QB50P2                  
1 40032U 14033Y   22003.36460744  .00000868  00000+0  97747-4 0  9990
2 40032  97.9288 295.6865 0010477 234.9314 125.0921 14.89231831409047
POLYITAN-1              
1 40042U 14033AJ  22003.47304138  .00001041  00000+0  11487-3 0  9997
2 40042  97.9583 300.8326 0013292 228.7868 131.2204 14.89615653409085
TIGRISAT                
1 40043U 14033AK  22003.49753116  .00000386  00000+0  63542-4 0  9995
2 40043  97.6573 201.6485 0058989 331.9913  27.8125 14.74676769405319
AISAT                   
1 40054U 14034B   22003.04438254  .00001176  00000+0  16743-3 0  9990
2 40054  98.3413 168.1388 0013646 122.7940 237.4587 14.78791072405026
CANX-4                  
1 40055U 14034C   22002.98329588  .00000314  00000+0  54609-4 0  9999
2 40055  98.3315 154.8037 0014619 160.1533 200.0247 14.75165169404326
CANX-5                  
1 40056U 14034D   22003.39609000  .00000290  00000+0  50981-4 0  9998
2 40056  98.3315 155.2118 0014648 159.1210 201.0599 14.75158539395192
VELOX-I                 
1 40057U 14034E   22003.47863578  .00001248  00000+0  17870-3 0  9993
2 40057  98.3464 169.7003 0011759 133.8273 226.3893 14.78463142405099
METEOR-M 2              
1 40069U 14037A   22003.52229224  .00000014  00000+0  25522-4 0  9993
2 40069  98.4444  28.7492 0006947  83.0895 277.1075 14.20694739388446
DX1                     
1 40071U 14037C   22003.49732527  .00000453  00000+0  65106-4 0  9996
2 40071  98.4290 223.8146 0009392 121.0281 239.1858 14.81615470404911
UKUBE-1                 
1 40074U 14037F   22003.54572454  .00001073  00000+0  13339-3 0  9995
2 40074  98.4027 235.4225 0005214  94.6299 265.5502 14.84811430405593
FIREBIRD 3              
1 40377U 15003B   22003.09663734  .00009206  00000+0  31527-3 0  9992
2 40377  99.1118 191.7736 0111029 222.7525 136.5032 15.24760806383187
FIREBIRD 4              
1 40378U 15003C   22003.52476841  .00010190  00000+0  34760-3 0  9998
2 40378  99.1123 192.4710 0111051 221.0442 138.2396 15.24835045383257
GRIFEX                  
1 40379U 15003D   22003.35711657  .00006287  00000+0  24467-3 0  9992
2 40379  99.1139 179.7955 0123046 259.1866  99.5494 15.19708865382523
CP10 (EXOCUBE)          
1 40380U 15003E   22003.41042196  .00004358  00000+0  18166-3 0  9992
2 40380  99.1173 173.4379 0129312 280.6022  78.0664 15.17115538382112
DEORBITSAIL             
1 40719U 15032E   22003.25624355  .00000960  00000+0  14069-3 0  9998
2 40719  97.8035 246.9598 0015959 175.6342 184.5011 14.77690511349484
NUDT-PHONESAT           
1 40900U 15049B   22003.58694766  .00009937  00000+0  35537-3 0  9993
2 40900  97.4122  21.5910 0012229 144.8295 345.3257 15.28934929349374
XW-2A                   
1 40903U 15049E   22003.73326701  .00008579  00000+0  16746-3 0  9996
2 40903  97.2104  62.5482 0011820  12.0786 137.0050 15.47657469353746
XW-2C                   
1 40906U 15049H   22003.55823794  .00002572  00000+0  13179-3 0  9997
2 40906  97.4903   8.5474 0013268 206.9549 270.7417 15.17417270347902
XW-2D                   
1 40907U 15049J   22003.76923818  .00002780  00000+0  14055-3 0  9994
2 40907  97.4894   8.6303 0012853 201.2307 277.6451 15.17829570347974
LILACSAT-2              
1 40908U 15049K   22003.60087892  .00001840  00000+0  10236-3 0  9994
2 40908  97.5115   6.0020 0014267 223.1433 257.5711 15.14839174347529
XW-2E                   
1 40909U 15049L   22003.51072419  .00004358  00000+0  20124-3 0  9998
2 40909  97.4665  12.6330 0012478 184.4742 300.7455 15.20667818348326
XW-2F                   
1 40910U 15049M   22003.84276944  .00004200  00000+0  19686-3 0  9992
2 40910  97.4732  12.0624 0013660 184.3360 297.7575 15.20163584348152
XW-2B                   
1 40911U 15049N   22003.59102995  .00002977  00000+0  15066-3 0  9996
2 40911  97.4889   9.1013 0012657 203.3573 304.6181 15.17738450347839
KAITUO 1B               
1 40912U 15049P   22003.62985640  .00004974  00000+0  21490-3 0  9994
2 40912  97.4420  16.2292 0014577 154.2144 329.7640 15.22850874348649
TIANWANG 1A (TW-1A)     
1 40928U 15051D   22003.49411520  .00013953  00000+0  25407-3 0  9999
2 40928  97.0600  28.8232 0006702 284.1882 211.6832 15.49571005352628
LAPAN-A2                
1 40931U 15052B   22003.12213620  .00000711  00000+0  97190-5 0  9993
2 40931   6.0004 268.3134 0013972 348.4803  11.5356 14.76716277338865
LQSAT                   
1 40958U 15057A   22003.43460322  .00000198  00000+0  38006-4 0  9993
2 40958  97.7764  56.8258 0019164 129.3701 230.9211 14.73235002335697
ATHENOXAT 1             
1 41168U 15077C   21365.88373679  .00008559  00000+0  38308-3 0  9999
2 41168  14.9884 248.2700 0010456  43.9580  41.5635 15.17106785334795
GALASSIA                
1 41170U 15077E   21363.00544024  .00007859  00000+0  34864-3 0  9993
2 41170  14.9887 259.8306 0011516  39.5528 320.5633 15.17119561334279
VELOX-II                
1 41171U 15077F   21365.89735129  .00004022  00000+0  18117-3 0  9993
2 41171  14.9922 303.9610 0008426 294.5118  65.4324 15.13438053334170
CHUBUSAT-2              
1 41338U 16012B   22003.28366595  .00000961  00000+0  67167-4 0  9996
2 41338  31.0042 355.0196 0013520 314.0621  45.8901 15.00771789322647
CHUBUSAT-3              
1 41339U 16012C   22003.42113299  .00001122  00000+0  79313-4 0  9990
2 41339  31.0127 351.1849 0013340 323.0394  36.9316 15.00900750322666
HORYU-4                 
1 41340U 16012D   22003.24478917  .00001577  00000+0  10994-3 0  9996
2 41340  31.0058 333.2689 0013502 357.2357   2.8203 15.02296232322855
